ION SCV-017             
1 63230U 25052W   26068.71648816  .00006457  00000+0  24539-3 0  9998
2 63230  97.4016 324.7516 0023746  44.9875 315.3282 15.26881798 54851
STARLINK-33915          
1 63708U 25087M   26068.71964280  .00026498  00000+0  90408-3 0  9997
2 63708  53.1572 219.4555 0000888  83.3484 276.7618 15.30182486 49204
